[{"OBJECT_NAME":"LEMUR-2-FURIAUS","OBJECT_ID":"2017-042R","EPOCH":"2026-03-09T23:04:27.745536","MEAN_MOTION":15.26272951,"ECCENTRICITY":0.00075374,"INCLINATION":97.3753,"RA_OF_ASC_NODE":248.499,"ARG_OF_PERICENTER":55.8686,"MEAN_ANOMALY":304.3266,"EPHEMERIS_TYPE":0,"CLASSIFICATION_TYPE":"U","NORAD_CAT_ID":42840,"ELEMENT_SET_NO":999,"REV_AT_EPOCH":47305,"BSTAR":0.00099966194,"MEAN_MOTION_DOT":0.00025928,"MEAN_MOTION_DDOT":0},{"OBJECT_NAME":"STARLINK-30149","OBJECT_ID":"2023-113X","EPOCH":"2026-03-09T22:00:01.999584","MEAN_MOTION":15.26748218,"ECCENTRICITY":0.00018049,"INCLINATION":43.0011,"RA_OF_ASC_NODE":14.4243,"ARG_OF_PERICENTER":259.3429,"MEAN_ANOMALY":119.5076,"EPHEMERIS_TYPE":0,"CLASSIFICATION_TYPE":"U","NORAD_CAT_ID":57516,"ELEMENT_SET_NO":999,"REV_AT_EPOCH":573,"BSTAR":0.00024904528,"MEAN_MOTION_DOT":6.428e-5,"MEAN_MOTION_DDOT":0}]
